EOSSAT-1                
1 55053U 23001AW  26068.73619225  .00007695  00000+0  24844-3 0  9992
2 55053  97.3357 130.2294 0011263 110.3168 249.9285 15.32339828176689
STARLINK-34769          
1 65094U 25167S   26068.26767209  .00019588  00000+0  67167-3 0  9996
2 65094  53.1615  28.7328 0001152  76.7668 283.3461 15.30202216 33416
